{
  "type": "FeatureCollection",
  "features": [
    {
      "type": "Feature",
      "properties": {
        "norad_id": 66920,
        "name": "HULIANWANG DIGUI-110",
        "group": "last-30-days",
        "lat": -28.744414668432327,
        "lon": -75.95948268535572,
        "alt_km": 885.472523153926,
        "timestamp": "2025-12-22T16:55:16.168758+00:00",
        "meta_object_name": "HULIANWANG DIGUI-110",
        "meta_object_id": "2025-285F",
        "meta_epoch": "2025-12-22T07:20:21.482016",
        "meta_mean_motion": 14.03683017,
        "meta_eccentricity": 0.00055937,
        "meta_inclination": 50.0107,
        "meta_ra_of_asc_node": 78.2566,
        "meta_arg_of_pericenter": 321.4923,
        "meta_mean_anomaly": 38.5582,
        "meta_ephemeris_type": 0,
        "meta_classification_type": "U",
        "meta_norad_cat_id": 66920,
        "meta_element_set_no": 999,
        "meta_rev_at_epoch": 225,
        "meta_bstar": 0.00011901563,
        "meta_mean_motion_dot": 3.7e-07,
        "meta_mean_motion_ddot": 0,
        "tle_line1": "1 66920U 25285F   25356.30580419  .00000037  00000+0  11902-3 0  9991",
        "tle_line2": "2 66920  50.0107  78.2566 0005593 321.4923  38.5582 14.03683017  2251"
      },
      "geometry": {
        "type": "Point",
        "coordinates": [
          -75.95948268535572,
          -28.744414668432327
        ]
      }
    },
    {
      "type": "Feature",
      "properties": {
        "norad_id": 66921,
        "name": "HULIANWANG DIGUI-111",
        "group": "last-30-days",
        "lat": -31.49362440938194,
        "lon": -72.4316649327386,
        "alt_km": 885.9920340757699,
        "timestamp": "2025-12-22T16:55:16.168772+00:00",
        "meta_object_name": "HULIANWANG DIGUI-111",
        "meta_object_id": "2025-285G",
        "meta_epoch": "2025-12-22T05:36:38.310336",
        "meta_mean_motion": 14.03632541,
        "meta_eccentricity": 0.00066798,
        "meta_inclination": 50.0122,
        "meta_ra_of_asc_node": 78.5453,
        "meta_arg_of_pericenter": 325.0099,
        "meta_mean_anomaly": 35.0365,
        "meta_ephemeris_type": 0,
        "meta_classification_type": "U",
        "meta_norad_cat_id": 66921,
        "meta_element_set_no": 999,
        "meta_rev_at_epoch": 224,
        "meta_bstar": 0.00011368906,
        "meta_mean_motion_dot": 2.8e-07,
        "meta_mean_motion_ddot": 0,
        "tle_line1": "1 66921U 25285G   25356.23377674  .00000028  00000+0  11369-3 0  9998",
        "tle_line2": "2 66921  50.0122  78.5453 0006679 325.0099  35.0365 14.03632541  2243"
      },
      "geometry": {
        "type": "Point",
        "coordinates": [
          -72.4316649327386,
          -31.49362440938194
        ]
      }
    },
    {
      "type": "Feature",
      "properties": {
        "norad_id": 66922,
        "name": "HULIANWANG DIGUI-112",
        "group": "last-30-days",
        "lat": -34.914892156665594,
        "lon": -67.5272483673872,
        "alt_km": 886.4854087369486,
        "timestamp": "2025-12-22T16:55:16.168784+00:00",
        "meta_object_name": "HULIANWANG DIGUI-112",
        "meta_object_id": "2025-285H",
        "meta_epoch": "2025-12-22T07:17:39.153696",
        "meta_mean_motion": 14.03662601,
        "meta_eccentricity": 0.00064976,
        "meta_inclination": 50.0094,
        "meta_ra_of_asc_node": 78.2426,
        "meta_arg_of_pericenter": 335.9243,
        "meta_mean_anomaly": 24.1357,
        "meta_ephemeris_type": 0,
        "meta_classification_type": "U",
        "meta_norad_cat_id": 66922,
        "meta_element_set_no": 999,
        "meta_rev_at_epoch": 225,
        "meta_bstar": 0.00012844983,
        "meta_mean_motion_dot": 5.2e-07,
        "meta_mean_motion_ddot": 0,
        "tle_line1": "1 66922U 25285H   25356.30392539  .00000052  00000+0  12845-3 0  9991",
        "tle_line2": "2 66922  50.0094  78.2426 0006497 335.9243  24.1357 14.03662601  2259"
      },
      "geometry": {
        "type": "Point",
        "coordinates": [
          -67.5272483673872,
          -34.914892156665594
        ]
      }
    },
    {
      "type": "Feature",
      "properties": {
        "norad_id": 66923,
        "name": "HULIANWANG DIGUI-113",
        "group": "last-30-days",
        "lat": -38.46317427118227,
        "lon": -61.582458665429186,
        "alt_km": 885.501058747448,
        "timestamp": "2025-12-22T16:55:16.168795+00:00",
        "meta_object_name": "HULIANWANG DIGUI-113",
        "meta_object_id": "2025-285J",
        "meta_epoch": "2025-12-22T07:15:58.595328",
        "meta_mean_motion": 14.03700472,
        "meta_eccentricity": 0.0005114,
        "meta_inclination": 50.0094,
        "meta_ra_of_asc_node": 78.2381,
        "meta_arg_of_pericenter": 330.4382,
        "meta_mean_anomaly": 29.6233,
        "meta_ephemeris_type": 0,
        "meta_classification_type": "U",
        "meta_norad_cat_id": 66923,
        "meta_element_set_no": 999,
        "meta_rev_at_epoch": 225,
        "meta_bstar": 0.00011561489,
        "meta_mean_motion_dot": 3.1e-07,
        "meta_mean_motion_ddot": 0,
        "tle_line1": "1 66923U 25285J   25356.30276152  .00000031  00000+0  11561-3 0  9995",
        "tle_line2": "2 66923  50.0094  78.2381 0005114 330.4382  29.6233 14.03700472  2251"
      },
      "geometry": {
        "type": "Point",
        "coordinates": [
          -61.582458665429186,
          -38.46317427118227
        ]
      }
    },
    {
      "type": "Feature",
      "properties": {
        "norad_id": 66924,
        "name": "CZ-8A R/B",
        "group": "last-30-days",
        "lat": -48.69026945492547,
        "lon": 0.9598220329675158,
        "alt_km": 858.9512675496826,
        "timestamp": "2025-12-22T16:55:16.168808+00:00",
        "meta_object_name": "CZ-8A R/B",
        "meta_object_id": "2025-285K",
        "meta_epoch": "2025-12-21T16:08:52.251936",
        "meta_mean_motion": 14.30505087,
        "meta_eccentricity": 0.01192587,
        "meta_inclination": 50.008,
        "meta_ra_of_asc_node": 78.1289,
        "meta_arg_of_pericenter": 138.2364,
        "meta_mean_anomaly": 222.7729,
        "meta_ephemeris_type": 0,
        "meta_classification_type": "U",
        "meta_norad_cat_id": 66924,
        "meta_element_set_no": 999,
        "meta_rev_at_epoch": 220,
        "meta_bstar": 4.9813091e-05,
        "meta_mean_motion_dot": -2.5e-07,
        "meta_mean_motion_ddot": 0,
        "tle_line1": "1 66924U 25285K   25355.67282699 -.00000025  00000+0  49813-4 0  9994",
        "tle_line2": "2 66924  50.0080  78.1289 0119258 138.2364 222.7729 14.30505087  2208"
      },
      "geometry": {
        "type": "Point",
        "coordinates": [
          0.9598220329675158,
          -48.69026945492547
        ]
      }
    },
    {
      "type": "Feature",
      "properties": {
        "norad_id": 66925,
        "name": "STARLINK-35945",
        "group": "last-30-days",
        "lat": 44.037727719237346,
        "lon": 134.06369479043204,
        "alt_km": 341.54546192158614,
        "timestamp": "2025-12-22T16:55:16.168819+00:00",
        "meta_object_name": "STARLINK-35945",
        "meta_object_id": "2025-286A",
        "meta_epoch": "2025-12-22T06:00:02.000160",
        "meta_mean_motion": 15.74409521,
        "meta_eccentricity": 0.00013946,
        "meta_inclination": 53.159,
        "meta_ra_of_asc_node": 2.79,
        "meta_arg_of_pericenter": 79.1898,
        "meta_mean_anomaly": 340.4539,
        "meta_ephemeris_type": 0,
        "meta_classification_type": "U",
        "meta_norad_cat_id": 66925,
        "meta_element_set_no": 999,
        "meta_rev_at_epoch": 352,
        "meta_bstar": -0.0049898478,
        "meta_mean_motion_dot": -0.00681715,
        "meta_mean_motion_ddot": 0,
        "tle_line1": "1 66925U 25286A   25356.25002315 -.00681715  00000+0 -49898-2 0  9999",
        "tle_line2": "2 66925  53.1590   2.7900 0001394  79.1898 340.4539 15.74409521  3526"
      },
      "geometry": {
        "type": "Point",
        "coordinates": [
          134.06369479043204,
          44.037727719237346
        ]
      }
    },
    {
      "type": "Feature",
      "properties": {
        "norad_id": 66926,
        "name": "STARLINK-35942",
        "group": "last-30-days",
        "lat": 43.057331370333486,
        "lon": 136.0550531753715,
        "alt_km": 347.2160012643626,
        "timestamp": "2025-12-22T16:55:16.168829+00:00",
        "meta_object_name": "STARLINK-35942",
        "meta_object_id": "2025-286B",
        "meta_epoch": "2025-12-22T06:00:02.000160",
        "meta_mean_motion": 15.73846974,
        "meta_eccentricity": 8.818e-05,
        "meta_inclination": 53.159,
        "meta_ra_of_asc_node": 2.7815,
        "meta_arg_of_pericenter": 102.6251,
        "meta_mean_anomaly": 320.8244,
        "meta_ephemeris_type": 0,
        "meta_classification_type": "U",
        "meta_norad_cat_id": 66926,
        "meta_element_set_no": 999,
        "meta_rev_at_epoch": 352,
        "meta_bstar": -0.016028201,
        "meta_mean_motion_dot": -0.02038292,
        "meta_mean_motion_ddot": 0,
        "tle_line1": "1 66926U 25286B   25356.25002315 -.02038292  00000+0 -16028-1 0  9996",
        "tle_line2": "2 66926  53.1590   2.7815 0000881 102.6251 320.8244 15.73846974  3528"
      },
      "geometry": {
        "type": "Point",
        "coordinates": [
          136.0550531753715,
          43.057331370333486
        ]
      }
    }
  ]
}